[{"OBJECT_NAME":"COSMOS 2530 (RODNIK-S 16)","OBJECT_ID":"2018-097A","EPOCH":"2026-03-09T23:05:33.897696","MEAN_MOTION":12.42877781,"ECCENTRICITY":0.00188059,"INCLINATION":82.5108,"RA_OF_ASC_NODE":283.8835,"ARG_OF_PERICENTER":252.1975,"MEAN_ANOMALY":107.7053,"EPHEMERIS_TYPE":0,"CLASSIFICATION_TYPE":"U","NORAD_CAT_ID":43751,"ELEMENT_SET_NO":999,"REV_AT_EPOCH":32996,"BSTAR":-0.0009028818,"MEAN_MOTION_DOT":-1.15e-6,"MEAN_MOTION_DDOT":0},{"OBJECT_NAME":"DELTA 1 DEB","OBJECT_ID":"1967-036D","EPOCH":"2026-03-07T21:03:22.779072","MEAN_MOTION":12.56861818,"ECCENTRICITY":0.00599439,"INCLINATION":101.6054,"RA_OF_ASC_NODE":32.3469,"ARG_OF_PERICENTER":105.2961,"MEAN_ANOMALY":280.8574,"EPHEMERIS_TYPE":0,"CLASSIFICATION_TYPE":"U","NORAD_CAT_ID":2977,"ELEMENT_SET_NO":999,"REV_AT_EPOCH":70066,"BSTAR":0.0001574326,"MEAN_MOTION_DOT":-1.8e-7,"MEAN_MOTION_DDOT":0}]
